STARLINK-35682          
1 66467U 25262M   25343.58335648 -.02074819  00000+0 -45378-1 0  9995
2 66467  43.0001  89.5613 0001524 280.6430  79.6461 15.46856610  5130
STARLINK-35331          
1 66468U 25262N   25343.64571657  .00034484  00000+0  59193-3 0  9997
2 66468  43.0007  89.1667 0000860 279.6223  80.4540 15.50536877  5089
STARLINK-35451          
1 66469U 25262P   25343.64467907  .00154659  00000+0  25854-2 0  9993
2 66469  43.0003  89.1572 0001423 273.5774  86.4923 15.50631911  5087
STARLINK-35655          
1 66470U 25262Q   25343.64536513  .00137321  00000+0  23024-2 0  9999
2 66470  43.0001  89.1632 0001499 263.2552  96.8137 15.50619241  5081
STARLINK-35569          
1 66471U 25262R   25343.64502394  .00091812  00000+0  15515-2 0  9990
2 66471  43.0001  89.1604 0001388 269.9878  90.0823 15.50596971  5084
STARLINK-35567          
1 66472U 25262S   25343.64433585  .00150226  00000+0  25133-2 0  9998
2 66472  43.0001  89.1547 0001485 271.3343  88.7347 15.50627332  5084
STARLINK-35568          
1 66473U 25262T   25343.64399297  .00137862  00000+0  23110-2 0  9994
2 66473  43.0004  89.1516 0001485 263.3771  96.6920 15.50623089  5080
STARLINK-35620          
1 66474U 25262U   25343.64365085  .00087543  00000+0  14801-2 0  9990
2 66474  43.0005  89.1487 0001610 278.0195  82.0483 15.50604112  5081
STARLINK-35538          
1 66475U 25262V   25343.64330788  .00157279  00000+0  26287-2 0  9998
2 66475  43.0002  89.1468 0001598 284.2710  75.7972 15.50627634  5081
STARLINK-35372          
1 66476U 25262W   25343.64296396  .00094317  00000+0  15931-2 0  9992
2 66476  43.0002  89.1435 0001614 276.3614  83.7062 15.50598592  4976
STARLINK-35354          
1 66477U 25262X   25343.64227950  .00094357  00000+0  15929-2 0  9994
2 66477  43.0000  89.1369 0001289 239.6063 120.4669 15.50613478  5085
STARLINK-35283          
1 66478U 25262Y   25343.64193634  .00121666  00000+0  20454-2 0  9999
2 66478  43.0002  89.1336 0001700 272.9829  87.0837 15.50609661  5084
