CCSDS_OMM_VERS = 2.0
CREATION_DATE  = 
ORIGINATOR     = 

OBJECT_NAME    = STARLINK-35682
OBJECT_ID      = 2025-262M
CENTER_NAME    = EARTH
REF_FRAME      = TEME
TIME_SYSTEM    = UTC
MEAN_ELEMENT_THEORY = SGP/SGP4

EPOCH          = 2025-12-09T14:00:01.999872
MEAN_MOTION    = 15.46856610
ECCENTRICITY   = .00015243
INCLINATION    = 43.0001
RA_OF_ASC_NODE = 89.5613
ARG_OF_PERICENTER = 280.6430
MEAN_ANOMALY   = 79.6461

EPHEMERIS_TYPE = 0
CLASSIFICATION_TYPE = U
NORAD_CAT_ID   = 66467
ELEMENT_SET_NO = 999
REV_AT_EPOCH   = 513
BSTAR          = -.45378419E-1
MEAN_MOTION_DOT = -.2074819E-1
MEAN_MOTION_DDOT = 0

CCSDS_OMM_VERS = 2.0
CREATION_DATE  = 
ORIGINATOR     = 

OBJECT_NAME    = STARLINK-35331
OBJECT_ID      = 2025-262N
CENTER_NAME    = EARTH
REF_FRAME      = TEME
TIME_SYSTEM    = UTC
MEAN_ELEMENT_THEORY = SGP/SGP4

EPOCH          = 2025-12-09T15:29:49.911648
MEAN_MOTION    = 15.50536877
ECCENTRICITY   = .00008605
INCLINATION    = 43.0007
RA_OF_ASC_NODE = 89.1667
ARG_OF_PERICENTER = 279.6223
MEAN_ANOMALY   = 80.4540

EPHEMERIS_TYPE = 0
CLASSIFICATION_TYPE = U
NORAD_CAT_ID   = 66468
ELEMENT_SET_NO = 999
REV_AT_EPOCH   = 508
BSTAR          = .59192846E-3
MEAN_MOTION_DOT = .34484E-3
MEAN_MOTION_DDOT = 0

CCSDS_OMM_VERS = 2.0
CREATION_DATE  = 
ORIGINATOR     = 

OBJECT_NAME    = STARLINK-35451
OBJECT_ID      = 2025-262P
CENTER_NAME    = EARTH
REF_FRAME      = TEME
TIME_SYSTEM    = UTC
MEAN_ELEMENT_THEORY = SGP/SGP4

EPOCH          = 2025-12-09T15:28:20.271648
MEAN_MOTION    = 15.50631911
ECCENTRICITY   = .00014236
INCLINATION    = 43.0003
RA_OF_ASC_NODE = 89.1572
ARG_OF_PERICENTER = 273.5774
MEAN_ANOMALY   = 86.4923

EPHEMERIS_TYPE = 0
CLASSIFICATION_TYPE = U
NORAD_CAT_ID   = 66469
ELEMENT_SET_NO = 999
REV_AT_EPOCH   = 508
BSTAR          = .25854483E-2
MEAN_MOTION_DOT = .154659E-2
MEAN_MOTION_DDOT = 0

CCSDS_OMM_VERS = 2.0
CREATION_DATE  = 
ORIGINATOR     = 

OBJECT_NAME    = STARLINK-35655
OBJECT_ID      = 2025-262Q
CENTER_NAME    = EARTH
REF_FRAME      = TEME
TIME_SYSTEM    = UTC
MEAN_ELEMENT_THEORY = SGP/SGP4

EPOCH          = 2025-12-09T15:29:19.547232
MEAN_MOTION    = 15.50619241
ECCENTRICITY   = .00014995
INCLINATION    = 43.0001
RA_OF_ASC_NODE = 89.1632
ARG_OF_PERICENTER = 263.2552
MEAN_ANOMALY   = 96.8137

EPHEMERIS_TYPE = 0
CLASSIFICATION_TYPE = U
NORAD_CAT_ID   = 66470
ELEMENT_SET_NO = 999
REV_AT_EPOCH   = 508
BSTAR          = .23024056E-2
MEAN_MOTION_DOT = .137321E-2
MEAN_MOTION_DDOT = 0

CCSDS_OMM_VERS = 2.0
CREATION_DATE  = 
ORIGINATOR     = 

OBJECT_NAME    = STARLINK-35569
OBJECT_ID      = 2025-262R
CENTER_NAME    = EARTH
REF_FRAME      = TEME
TIME_SYSTEM    = UTC
MEAN_ELEMENT_THEORY = SGP/SGP4

EPOCH          = 2025-12-09T15:28:50.068416
MEAN_MOTION    = 15.50596971
ECCENTRICITY   = .00013888
INCLINATION    = 43.0001
RA_OF_ASC_NODE = 89.1604
ARG_OF_PERICENTER = 269.9878
MEAN_ANOMALY   = 90.0823

EPHEMERIS_TYPE = 0
CLASSIFICATION_TYPE = U
NORAD_CAT_ID   = 66471
ELEMENT_SET_NO = 999
REV_AT_EPOCH   = 508
BSTAR          = .15515367E-2
MEAN_MOTION_DOT = .91812E-3
MEAN_MOTION_DDOT = 0

CCSDS_OMM_VERS = 2.0
CREATION_DATE  = 
ORIGINATOR     = 

OBJECT_NAME    = STARLINK-35567
OBJECT_ID      = 2025-262S
CENTER_NAME    = EARTH
REF_FRAME      = TEME
TIME_SYSTEM    = UTC
MEAN_ELEMENT_THEORY = SGP/SGP4

EPOCH          = 2025-12-09T15:27:50.617440
MEAN_MOTION    = 15.50627332
ECCENTRICITY   = .00014858
INCLINATION    = 43.0001
RA_OF_ASC_NODE = 89.1547
ARG_OF_PERICENTER = 271.3343
MEAN_ANOMALY   = 88.7347

EPHEMERIS_TYPE = 0
CLASSIFICATION_TYPE = U
NORAD_CAT_ID   = 66472
ELEMENT_SET_NO = 999
REV_AT_EPOCH   = 508
BSTAR          = .25133427E-2
MEAN_MOTION_DOT = .150226E-2
MEAN_MOTION_DDOT = 0

CCSDS_OMM_VERS = 2.0
CREATION_DATE  = 
ORIGINATOR     = 

OBJECT_NAME    = STARLINK-35568
OBJECT_ID      = 2025-262T
CENTER_NAME    = EARTH
REF_FRAME      = TEME
TIME_SYSTEM    = UTC
MEAN_ELEMENT_THEORY = SGP/SGP4

EPOCH          = 2025-12-09T15:27:20.992608
MEAN_MOTION    = 15.50623089
ECCENTRICITY   = .0001485
INCLINATION    = 43.0004
RA_OF_ASC_NODE = 89.1516
ARG_OF_PERICENTER = 263.3771
MEAN_ANOMALY   = 96.6920

EPHEMERIS_TYPE = 0
CLASSIFICATION_TYPE = U
NORAD_CAT_ID   = 66473
ELEMENT_SET_NO = 999
REV_AT_EPOCH   = 508
BSTAR          = .23109721E-2
MEAN_MOTION_DOT = .137862E-2
MEAN_MOTION_DDOT = 0

CCSDS_OMM_VERS = 2.0
CREATION_DATE  = 
ORIGINATOR     = 

OBJECT_NAME    = STARLINK-35620
OBJECT_ID      = 2025-262U
CENTER_NAME    = EARTH
REF_FRAME      = TEME
TIME_SYSTEM    = UTC
MEAN_ELEMENT_THEORY = SGP/SGP4

EPOCH          = 2025-12-09T15:26:51.433440
MEAN_MOTION    = 15.50604112
ECCENTRICITY   = .00016103
INCLINATION    = 43.0005
RA_OF_ASC_NODE = 89.1487
ARG_OF_PERICENTER = 278.0195
MEAN_ANOMALY   = 82.0483

EPHEMERIS_TYPE = 0
CLASSIFICATION_TYPE = U
NORAD_CAT_ID   = 66474
ELEMENT_SET_NO = 999
REV_AT_EPOCH   = 508
BSTAR          = .14800831E-2
MEAN_MOTION_DOT = .87543E-3
MEAN_MOTION_DDOT = 0

CCSDS_OMM_VERS = 2.0
CREATION_DATE  = 
ORIGINATOR     = 

OBJECT_NAME    = STARLINK-35538
OBJECT_ID      = 2025-262V
CENTER_NAME    = EARTH
REF_FRAME      = TEME
TIME_SYSTEM    = UTC
MEAN_ELEMENT_THEORY = SGP/SGP4

EPOCH          = 2025-12-09T15:26:21.800832
MEAN_MOTION    = 15.50627634
ECCENTRICITY   = .00015987
INCLINATION    = 43.0002
RA_OF_ASC_NODE = 89.1468
ARG_OF_PERICENTER = 284.2710
MEAN_ANOMALY   = 75.7972

EPHEMERIS_TYPE = 0
CLASSIFICATION_TYPE = U
NORAD_CAT_ID   = 66475
ELEMENT_SET_NO = 999
REV_AT_EPOCH   = 508
BSTAR          = .26286608E-2
MEAN_MOTION_DOT = .157279E-2
MEAN_MOTION_DDOT = 0

CCSDS_OMM_VERS = 2.0
CREATION_DATE  = 
ORIGINATOR     = 

OBJECT_NAME    = STARLINK-35372
OBJECT_ID      = 2025-262W
CENTER_NAME    = EARTH
REF_FRAME      = TEME
TIME_SYSTEM    = UTC
MEAN_ELEMENT_THEORY = SGP/SGP4

EPOCH          = 2025-12-09T15:25:52.086144
MEAN_MOTION    = 15.50598592
ECCENTRICITY   = .00016148
INCLINATION    = 43.0002
RA_OF_ASC_NODE = 89.1435
ARG_OF_PERICENTER = 276.3614
MEAN_ANOMALY   = 83.7062

EPHEMERIS_TYPE = 0
CLASSIFICATION_TYPE = U
NORAD_CAT_ID   = 66476
ELEMENT_SET_NO = 999
REV_AT_EPOCH   = 497
BSTAR          = .15930863E-2
MEAN_MOTION_DOT = .94317E-3
MEAN_MOTION_DDOT = 0

CCSDS_OMM_VERS = 2.0
CREATION_DATE  = 
ORIGINATOR     = 

OBJECT_NAME    = STARLINK-35354
OBJECT_ID      = 2025-262X
CENTER_NAME    = EARTH
REF_FRAME      = TEME
TIME_SYSTEM    = UTC
MEAN_ELEMENT_THEORY = SGP/SGP4

EPOCH          = 2025-12-09T15:24:52.948800
MEAN_MOTION    = 15.50613478
ECCENTRICITY   = .00012894
INCLINATION    = 43.0000
RA_OF_ASC_NODE = 89.1369
ARG_OF_PERICENTER = 239.6063
MEAN_ANOMALY   = 120.4669

EPHEMERIS_TYPE = 0
CLASSIFICATION_TYPE = U
NORAD_CAT_ID   = 66477
ELEMENT_SET_NO = 999
REV_AT_EPOCH   = 508
BSTAR          = .15929324E-2
MEAN_MOTION_DOT = .94357E-3
MEAN_MOTION_DDOT = 0

CCSDS_OMM_VERS = 2.0
CREATION_DATE  = 
ORIGINATOR     = 

OBJECT_NAME    = STARLINK-35283
OBJECT_ID      = 2025-262Y
CENTER_NAME    = EARTH
REF_FRAME      = TEME
TIME_SYSTEM    = UTC
MEAN_ELEMENT_THEORY = SGP/SGP4

EPOCH          = 2025-12-09T15:24:23.299776
MEAN_MOTION    = 15.50609661
ECCENTRICITY   = .00017009
INCLINATION    = 43.0002
RA_OF_ASC_NODE = 89.1336
ARG_OF_PERICENTER = 272.9829
MEAN_ANOMALY   = 87.0837

EPHEMERIS_TYPE = 0
CLASSIFICATION_TYPE = U
NORAD_CAT_ID   = 66478
ELEMENT_SET_NO = 999
REV_AT_EPOCH   = 508
BSTAR          = .20453696E-2
MEAN_MOTION_DOT = .121666E-2
MEAN_MOTION_DDOT = 0

